{"fetched_at":"2026-07-23T07:05:48.218Z","source":"https://celestrak.org/NORAD/elements/gp.php?NAME=JILIN&FORMAT=JSON","constellation":"jilin-1-gaofen","records":[{"OBJECT_NAME":"JILIN-1 GAOFEN 03D51","OBJECT_ID":"2022-155B","EPOCH":"2026-07-22T22:18:44.466048","CLASSIFICATION_TYPE":"U","MEAN_MOTION":15.65547305,"ECCENTRICITY":0.00046503,"INCLINATION":97.626,"RA_OF_ASC_NODE":351.5861,"ARG_OF_PERICENTER":205.4783,"MEAN_ANOMALY":154.6248,"EPHEMERIS_TYPE":0,"NORAD_CAT_ID":54252,"ELEMENT_SET_NO":999,"REV_AT_EPOCH":20533,"BSTAR":0.00065978954,"MEAN_MOTION_DOT":0.00066436,"MEAN_MOTION_DDOT":0},{"OBJECT_NAME":"JILIN-1 GAOFEN 03D53","OBJECT_ID":"2022-155C","EPOCH":"2026-07-22T21:30:40.887648","CLASSIFICATION_TYPE":"U","MEAN_MOTION":15.5481928,"ECCENTRICITY":0.00053006,"INCLINATION":97.6255,"RA_OF_ASC_NODE":346.6202,"ARG_OF_PERICENTER":221.2338,"MEAN_ANOMALY":138.8515,"EPHEMERIS_TYPE":0,"NORAD_CAT_ID":54253,"ELEMENT_SET_NO":999,"REV_AT_EPOCH":20503,"BSTAR":0.0005993924,"MEAN_MOTION_DOT":0.00039977,"MEAN_MOTION_DDOT":0},{"OBJECT_NAME":"JILIN-1 GAOFEN 03D52","OBJECT_ID":"2022-155E","EPOCH":"2026-07-22T22:22:20.619840","CLASSIFICATION_TYPE":"U","MEAN_MOTION":15.62621549,"ECCENTRICITY":0.00040761,"INCLINATION":97.6235,"RA_OF_ASC_NODE":349.7613,"ARG_OF_PERICENTER":219.4778,"MEAN_ANOMALY":140.6183,"EPHEMERIS_TYPE":0,"NORAD_CAT_ID":54255,"ELEMENT_SET_NO":999,"REV_AT_EPOCH":20528,"BSTAR":0.00064772645,"MEAN_MOTION_DOT":0.00058072,"MEAN_MOTION_DDOT":0},{"OBJECT_NAME":"JILIN-1 GAOFEN 03D50","OBJECT_ID":"2022-167J","EPOCH":"2026-07-22T22:05:02.782176","CLASSIFICATION_TYPE":"U","MEAN_MOTION":15.35179597,"ECCENTRICITY":0.00045407,"INCLINATION":97.6863,"RA_OF_ASC_NODE":13.2481,"ARG_OF_PERICENTER":354.7187,"MEAN_ANOMALY":5.4007,"EPHEMERIS_TYPE":0,"NORAD_CAT_ID":54690,"ELEMENT_SET_NO":999,"REV_AT_EPOCH":20083,"BSTAR":0.00035854636,"MEAN_MOTION_DOT":0.00012167,"MEAN_MOTION_DDOT":0},{"OBJECT_NAME":"JILIN-1 GAOFEN 03D47","OBJECT_ID":"2022-167L","EPOCH":"2026-07-22T22:15:52.108416","CLASSIFICATION_TYPE":"U","MEAN_MOTION":15.34456208,"ECCENTRICITY":0.00071302,"INCLINATION":97.696,"RA_OF_ASC_NODE":14.9953,"ARG_OF_PERICENTER":3.202,"MEAN_ANOMALY":356.9266,"EPHEMERIS_TYPE":0,"NORAD_CAT_ID":54692,"ELEMENT_SET_NO":999,"REV_AT_EPOCH":20082,"BSTAR":0.0003525603,"MEAN_MOTION_DOT":0.00011695,"MEAN_MOTION_DDOT":0},{"OBJECT_NAME":"JILIN-1 GAOFEN 03D49","OBJECT_ID":"2022-167N","EPOCH":"2026-07-22T22:11:33.576288","CLASSIFICATION_TYPE":"U","MEAN_MOTION":15.38177557,"ECCENTRICITY":0.00054372,"INCLINATION":97.6837,"RA_OF_ASC_NODE":15.6815,"ARG_OF_PERICENTER":24.8742,"MEAN_ANOMALY":335.2763,"EPHEMERIS_TYPE":0,"NORAD_CAT_ID":54694,"ELEMENT_SET_NO":999,"REV_AT_EPOCH":20098,"BSTAR":0.00036960246,"MEAN_MOTION_DOT":0.00013823,"MEAN_MOTION_DDOT":0},{"OBJECT_NAME":"JILIN-1 GAOFEN 03D48","OBJECT_ID":"2022-167P","EPOCH":"2026-07-22T23:22:49.004256","CLASSIFICATION_TYPE":"U","MEAN_MOTION":15.3591508,"ECCENTRICITY":0.00057646,"INCLINATION":97.6909,"RA_OF_ASC_NODE":15.0391,"ARG_OF_PERICENTER":3.2982,"MEAN_ANOMALY":356.8298,"EPHEMERIS_TYPE":0,"NORAD_CAT_ID":54695,"ELEMENT_SET_NO":999,"REV_AT_EPOCH":20088,"BSTAR":0.00036380117,"MEAN_MOTION_DOT":0.00012644,"MEAN_MOTION_DDOT":0},{"OBJECT_NAME":"JILIN GAOFEN OBJECT A","OBJECT_ID":"2026-080A","EPOCH":"2026-07-21T15:09:09.839232","CLASSIFICATION_TYPE":"U","MEAN_MOTION":15.09236821,"ECCENTRICITY":0.00108245,"INCLINATION":97.6606,"RA_OF_ASC_NODE":278.1015,"ARG_OF_PERICENTER":310.5332,"MEAN_ANOMALY":49.4954,"EPHEMERIS_TYPE":0,"NORAD_CAT_ID":68691,"ELEMENT_SET_NO":999,"REV_AT_EPOCH":1485,"BSTAR":0.00029113949,"MEAN_MOTION_DOT":0.00004573,"MEAN_MOTION_DDOT":0},{"OBJECT_NAME":"JILIN GAOFEN OBJECT B","OBJECT_ID":"2026-080B","EPOCH":"2026-07-22T20:59:24.722880","CLASSIFICATION_TYPE":"U","MEAN_MOTION":15.08952936,"ECCENTRICITY":0.00153536,"INCLINATION":97.6585,"RA_OF_ASC_NODE":279.3511,"ARG_OF_PERICENTER":284.9063,"MEAN_ANOMALY":75.0465,"EPHEMERIS_TYPE":0,"NORAD_CAT_ID":68692,"ELEMENT_SET_NO":999,"REV_AT_EPOCH":1504,"BSTAR":0.00034011761,"MEAN_MOTION_DOT":0.00005319,"MEAN_MOTION_DDOT":0},{"OBJECT_NAME":"JILIN GAOFEN OBJECT C","OBJECT_ID":"2026-080C","EPOCH":"2026-07-21T19:55:39.764640","CLASSIFICATION_TYPE":"U","MEAN_MOTION":15.08937375,"ECCENTRICITY":0.00131337,"INCLINATION":97.6584,"RA_OF_ASC_NODE":278.2795,"ARG_OF_PERICENTER":290.006,"MEAN_ANOMALY":69.9754,"EPHEMERIS_TYPE":0,"NORAD_CAT_ID":68693,"ELEMENT_SET_NO":999,"REV_AT_EPOCH":1488,"BSTAR":0.00035856619,"MEAN_MOTION_DOT":0.00005605,"MEAN_MOTION_DDOT":0},{"OBJECT_NAME":"JILIN GAOFEN OBJECT D","OBJECT_ID":"2026-080D","EPOCH":"2026-07-22T22:35:39.537312","CLASSIFICATION_TYPE":"U","MEAN_MOTION":15.09012214,"ECCENTRICITY":0.00159359,"INCLINATION":97.665,"RA_OF_ASC_NODE":279.4988,"ARG_OF_PERICENTER":296.9374,"MEAN_ANOMALY":63.0226,"EPHEMERIS_TYPE":0,"NORAD_CAT_ID":68694,"ELEMENT_SET_NO":999,"REV_AT_EPOCH":1503,"BSTAR":0.00034769726,"MEAN_MOTION_DOT":0.00005449,"MEAN_MOTION_DDOT":0},{"OBJECT_NAME":"JILIN GAOFEN OBJECT E","OBJECT_ID":"2026-080E","EPOCH":"2026-07-22T22:09:34.443648","CLASSIFICATION_TYPE":"U","MEAN_MOTION":15.08970353,"ECCENTRICITY":0.00132305,"INCLINATION":97.6627,"RA_OF_ASC_NODE":279.4988,"ARG_OF_PERICENTER":307.6297,"MEAN_ANOMALY":52.373,"EPHEMERIS_TYPE":0,"NORAD_CAT_ID":68695,"ELEMENT_SET_NO":999,"REV_AT_EPOCH":1501,"BSTAR":0.00030459151,"MEAN_MOTION_DOT":0.00004756,"MEAN_MOTION_DDOT":0},{"OBJECT_NAME":"JILIN GAOFEN OBJECT F","OBJECT_ID":"2026-080F","EPOCH":"2026-07-22T22:08:17.035296","CLASSIFICATION_TYPE":"U","MEAN_MOTION":15.08954507,"ECCENTRICITY":0.00119029,"INCLINATION":97.6598,"RA_OF_ASC_NODE":279.4632,"ARG_OF_PERICENTER":310.4263,"MEAN_ANOMALY":49.5926,"EPHEMERIS_TYPE":0,"NORAD_CAT_ID":68696,"ELEMENT_SET_NO":999,"REV_AT_EPOCH":1501,"BSTAR":0.00031228341,"MEAN_MOTION_DOT":0.00004874,"MEAN_MOTION_DDOT":0},{"OBJECT_NAME":"JILIN GAOFEN OBJECT G","OBJECT_ID":"2026-080G","EPOCH":"2026-07-22T21:48:18.230976","CLASSIFICATION_TYPE":"U","MEAN_MOTION":15.08943972,"ECCENTRICITY":0.001429,"INCLINATION":97.6639,"RA_OF_ASC_NODE":279.5379,"ARG_OF_PERICENTER":306.4359,"MEAN_ANOMALY":53.5551,"EPHEMERIS_TYPE":0,"NORAD_CAT_ID":68697,"ELEMENT_SET_NO":999,"REV_AT_EPOCH":1501,"BSTAR":0.00035824045,"MEAN_MOTION_DOT":0.00005603,"MEAN_MOTION_DDOT":0},{"OBJECT_NAME":"JILIN GAOFEN OBJECT H","OBJECT_ID":"2026-080H","EPOCH":"2026-07-22T15:23:13.305408","CLASSIFICATION_TYPE":"U","MEAN_MOTION":15.08968714,"ECCENTRICITY":0.00145703,"INCLINATION":97.6625,"RA_OF_ASC_NODE":279.2607,"ARG_OF_PERICENTER":309.413,"MEAN_ANOMALY":50.5808,"EPHEMERIS_TYPE":0,"NORAD_CAT_ID":68698,"ELEMENT_SET_NO":999,"REV_AT_EPOCH":1497,"BSTAR":0.00030148004,"MEAN_MOTION_DOT":0.00004708,"MEAN_MOTION_DDOT":0}]}
