JILIN-1 GAOFEN 03D51    
1 54252U 22155B   26203.92968132  .00066436  00000+0  65979-3 0  9999
2 54252  97.6260 351.5861 0004650 205.4783 154.6248 15.65547305205337
JILIN-1 GAOFEN 03D53    
1 54253U 22155C   26203.89630657  .00039977  00000+0  59939-3 0  9993
2 54253  97.6255 346.6202 0005300 221.2338 138.8515 15.54819280205031
JILIN-1 GAOFEN 03D52    
1 54255U 22155E   26203.93218310  .00058072  00000+0  64773-3 0  9997
2 54255  97.6235 349.7613 0004076 219.4778 140.6183 15.62621549205284
JILIN-1 GAOFEN 03D50    
1 54690U 22167J   26203.92017109  .00012167  00000+0  35855-3 0  9999
2 54690  97.6863  13.2481 0004540 354.7187   5.4007 15.35179597200833
JILIN-1 GAOFEN 03D47    
1 54692U 22167L   26203.92768644  .00011695  00000+0  35256-3 0  9998
2 54692  97.6960  14.9953 0007130   3.2020 356.9266 15.34456208200821
JILIN-1 GAOFEN 03D49    
1 54694U 22167N   26203.92469417  .00013823  00000+0  36960-3 0  9994
2 54694  97.6837  15.6815 0005437  24.8742 335.2763 15.38177557200989
JILIN-1 GAOFEN 03D48    
1 54695U 22167P   26203.97417829  .00012644  00000+0  36380-3 0  9996
2 54695  97.6909  15.0391 0005764   3.2982 356.8298 15.35915080200882
JILIN GAOFEN OBJECT A   
1 68691U 26080A   26202.63136388  .00004573  00000+0  29114-3 0  9994
2 68691  97.6606 278.1015 0010824 310.5332  49.4954 15.09236821 14852
JILIN GAOFEN OBJECT B   
1 68692U 26080B   26203.87459170  .00005319  00000+0  34012-3 0  9991
2 68692  97.6585 279.3511 0015353 284.9063  75.0465 15.08952936 15045
JILIN GAOFEN OBJECT C   
1 68693U 26080C   26202.83032135  .00005605  00000+0  35857-3 0  9991
2 68693  97.6584 278.2795 0013133 290.0060  69.9754 15.08937375 14880
JILIN GAOFEN OBJECT D   
1 68694U 26080D   26203.94142983  .00005449  00000+0  34770-3 0  9997
2 68694  97.6650 279.4988 0015935 296.9374  63.0226 15.09012214 15031
JILIN GAOFEN OBJECT E   
1 68695U 26080E   26203.92331532  .00004756  00000+0  30459-3 0  9996
2 68695  97.6627 279.4988 0013230 307.6297  52.3730 15.08970353 15011
JILIN GAOFEN OBJECT F   
1 68696U 26080F   26203.92241939  .00004874  00000+0  31228-3 0  9994
2 68696  97.6598 279.4632 0011902 310.4263  49.5926 15.08954507 15012
JILIN GAOFEN OBJECT G   
1 68697U 26080G   26203.90854434  .00005603  00000+0  35824-3 0  9990
2 68697  97.6639 279.5379 0014290 306.4359  53.5551 15.08943972 15015
JILIN GAOFEN OBJECT H   
1 68698U 26080H   26203.64112622  .00004708  00000+0  30148-3 0  9997
2 68698  97.6625 279.2607 0014570 309.4130  50.5808 15.08968714 14970
